[{"OBJECT_NAME":"CARTOSAT-2A","OBJECT_ID":"2008-021A","EPOCH":"2026-03-10T00:17:01.509792","MEAN_MOTION":14.79100763,"ECCENTRICITY":0.00132764,"INCLINATION":97.7772,"RA_OF_ASC_NODE":121.0502,"ARG_OF_PERICENTER":75.3983,"MEAN_ANOMALY":284.87,"EPHEMERIS_TYPE":0,"CLASSIFICATION_TYPE":"U","NORAD_CAT_ID":32783,"ELEMENT_SET_NO":999,"REV_AT_EPOCH":96414,"BSTAR":9.5052975e-5,"MEAN_MOTION_DOT":6.55e-6,"MEAN_MOTION_DDOT":0},{"OBJECT_NAME":"STARK","OBJECT_ID":"2025-185C","EPOCH":"2026-03-09T19:23:11.035968","MEAN_MOTION":14.78690029,"ECCENTRICITY":0.00098781,"INCLINATION":97.9576,"RA_OF_ASC_NODE":153.2747,"ARG_OF_PERICENTER":62.8418,"MEAN_ANOMALY":297.3799,"EPHEMERIS_TYPE":0,"CLASSIFICATION_TYPE":"U","NORAD_CAT_ID":65299,"ELEMENT_SET_NO":999,"REV_AT_EPOCH":2915,"BSTAR":0.0003503119,"MEAN_MOTION_DOT":2.519e-5,"MEAN_MOTION_DDOT":0}]
